STARLINK-33791          
1 63594C 25076AB  26082.32756944  .00049324  00000+0  17858-2 0   820
2 63594  43.0007 244.8685 0001981 255.1301 111.6729 15.27565703    15
STARLINK-33831          
1 63595C 25076AC  26082.41020833  .00045225  00000+0  16373-2 0   829
2 63595  43.0023 244.0387 0001526 280.5995 308.5621 15.27570940    18
STARLINK-33879          
1 63634C 25083A   26082.29354167 -.00016872  00000+0 -61100-3 0   824
2 63634  43.0032 288.7307 0001585 291.1376  59.3388 15.27591521    14
STARLINK-33854          
1 63635C 25083B   26082.36368056  .00008449  00000+0  30598-3 0   821
2 63635  43.0010 287.7804 0001553 287.8494 322.2637 15.27579447    12
STARLINK-33864          
1 63636C 25083C   26082.29701389 -.00015542  00000+0 -56276-3 0   829
2 63636  43.0025 288.7645 0001648 289.7776  58.5834 15.27596118    14
STARLINK-33832          
1 63637C 25083D   26082.42062500  .00033572  00000+0  12159-2 0   822
2 63637  43.0012 287.3560 0001561 294.9499 311.1792 15.27563745    17
STARLINK-33856          
1 63638C 25083E   26082.35465278  .00004573  00000+0  16563-3 0   827
2 63638  43.0010 287.8553 0001506 286.3959 259.8737 15.27578452    16
STARLINK-33876          
1 63639C 25083F   26082.43520833  .00033804  00000+0  12246-2 0   828
2 63639  43.0003 287.5983 0001689 250.0139 294.9082 15.27554310    13
STARLINK-33859          
1 63640C 25083G   26082.36715278  .00011701  00000+0  42395-3 0   822
2 63640  43.0027 288.3545 0001968 252.0123 129.6147 15.27559730    16
STARLINK-33826          
1 63641C 25083H   26082.40048611  .00028952  00000+0  10486-2 0   829
2 63641  43.0005 287.6354 0001602 284.0848 140.3816 15.27563687    16
STARLINK-33836          
1 63642C 25083J   26082.35326389  .00005996  00000+0  21714-3 0   825
2 63642  43.0030 288.3092 0001362 282.2172  72.4499 15.27579257    17
STARLINK-33558          
1 63643C 25083K   26082.34909722  .00004659  00000+0  16872-3 0   827
2 63643  43.0011 287.8073 0001491 288.1959 262.8515 15.27577943    15
STARLINK-33852          
1 63644C 25083L   26082.42270833  .00039022  00000+0  14134-2 0   821
2 63644  43.0027 287.8985 0001470 281.5363 102.5623 15.27558488    11
STARLINK-33835          
1 63645C 25083M   26082.40256944  .00030658  00000+0  11098-2 0   829
2 63645  43.0009 287.8332 0001652 258.9968  85.0262 15.27582968    13
STARLINK-33661          
1 63646C 25083N   26082.41715278  .00030464  00000+0  11036-2 0   828
2 63646  43.0002 287.5649 0001773 250.8850 251.2109 15.27556742    18
STARLINK-33729          
1 63647C 25083P   26082.29493056 -.00016003  00000+0 -57945-3 0   827
2 63647  43.0032 288.7058 0001254 265.1002 100.2037 15.27596334    15
STARLINK-33717          
1 63648C 25083Q   26082.32618056 -.00004714  00000+0 -17080-3 0   823
2 63648  43.0009 287.9682 0001788 258.2477 152.4841 15.27570529    15
STARLINK-33684          
1 63649C 25083R   26082.35395833 -.00241870  00000+0 -87583-2 0   822
2 63649  43.0015 287.7097 0001770 277.4434 328.8292 15.27705706    14
STARLINK-33704          
1 63650C 25083S   26082.43312500  .00033123  00000+0  11996-2 0   826
2 63650  42.9999 287.5466 0001736 267.3336 294.3941 15.27565675    11
STARLINK-33705          
1 63651C 25083T   26082.39493056  .00027052  00000+0  98014-3 0   829
2 63651  43.0001 287.7056 0001703 246.9735 125.7007 15.27553872    11
STARLINK-33663          
1 63652C 25083U   26082.32965278 -.00002075  00000+0 -75138-4 0   826
2 63652  43.0009 287.9728 0001557 288.1782 127.5275 15.27584045    18
STARLINK-33866          
1 63653C 25083V   26082.31923611 -.00009482  00000+0 -34343-3 0   822
2 63653  43.0026 288.4433 0001506 289.3958 259.1582 15.27584901    13
STARLINK-33849          
1 63654C 25083W   26082.37548611  .00013900  00000+0  50346-3 0   821
2 63654  43.0022 288.0898 0001694 264.5381 247.9667 15.27570537    13
STARLINK-33873          
1 63655C 25083X   26082.31854167 -.00011644  00000+0 -42155-3 0   826
2 63655  43.0025 288.4301 0001170 274.6797 277.1515 15.27600110    10
STARLINK-33772          
1 63656C 25083Y   26082.34979167  .00006106  00000+0  22117-3 0   829
2 63656  43.0003 288.0320 0001535 275.5984 180.2408 15.27574766    19
STARLINK-33789          
1 63657C 25083Z   26082.35743056  .00006009  00000+0  21764-3 0   826
2 63657  43.0005 287.8872 0001569 287.6665 252.6758 15.27577643    17
STARLINK-33822          
1 63658C 25083AA  26082.36784722  .00012251  00000+0  44384-3 0   822
2 63658  43.0021 288.1151 0001561 281.3512 196.0895 15.27564969    14
STARLINK-33771          
1 63659C 25083AB  26082.36229167  .00002392  00000+0  86674-4 0   824
2 63659  43.0011 291.3931 0001824 249.8817 319.8262 15.27559510    14
STARLINK-33810          
1 63660C 25083AC  26082.36854167  .00011374  00000+0  41191-3 0   824
2 63660  43.0010 287.7065 0001579 284.0703   6.9603 15.27577456    16
STARLINK-33823          
1 63661C 25083AD  26082.36229167  .00010303  00000+0  37312-3 0   822
2 63661  43.0016 288.0995 0001574 277.4540 190.6906 15.27578257    16
STARLINK-11651 [DTC]    
1 63664C 25085A   26082.29076389 -.00096405  00000+0 -74934-3 0   825
2 63664  42.9996 196.0806 0001578 269.5277 135.5713 15.70868320    11
STARLINK-11672 [DTC]    
1 63665C 25085B   26082.35881944  .00093466  00000+0  72805-3 0   821
2 63665  43.0001 195.5958 0001615 243.2538 217.2498 15.70723234    16
STARLINK-11664 [DTC]    
1 63666C 25085C   26082.36229167  .00113260  00000+0  84616-3 0   824
2 63666  42.9997 196.3949 0002061 284.0231 226.4959 15.71701216    18
STARLINK-11666 [DTC]    
1 63667C 25085D   26082.33173611  .00090201  00000+0  70257-3 0   829
2 63667  43.0001 196.5804 0001792 238.1333  98.3591 15.70726300    10
STARLINK-11663 [DTC]    
1 63668C 25085E   26082.33798611  .00102710  00000+0  79998-3 0   823
2 63668  42.9996 196.4678 0001895 236.9576 165.0027 15.70720799    11
STARLINK-11595 [DTC]    
1 63669C 25085F   26082.40465278 -.00174450  00000+0 -13580-2 0   828
2 63669  42.9996 195.9916 0001533 269.6607 179.7926 15.70870638    16
STARLINK-11599 [DTC]    
1 63670C 25085G   26082.33381944  .00108760  00000+0  84539-3 0   821
2 63670  43.0001 196.3430 0002002 236.6927 201.7001 15.70765168    15
STARLINK-11603 [DTC]    
1 63671C 25085H   26082.32270833  .00111280  00000+0  86501-3 0   827
2 63671  43.0001 196.3345 0002007 234.3929 171.1596 15.70763240    11
STARLINK-11644 [DTC]    
1 63672C 25085J   26082.28729167  .00101780  00000+0  78967-3 0   823
2 63672  42.9998 196.4725 0001553 260.6688 334.3003 15.70813950    17
STARLINK-11634 [DTC]    
1 63673C 25085K   26082.42965278  .00019185  00000+0  14934-3 0   826
2 63673  43.0000 195.5406 0001758 247.4053 103.8010 15.70775862    12
STARLINK-11656 [DTC]    
1 63674C 25085L   26082.41993056  .00058519  00000+0  45595-3 0   822
2 63674  42.9999 195.5238 0001135 258.0226  68.2354 15.70735125    13
STARLINK-11655 [DTC]    
1 63675C 25085M   26082.28798611 -.00052656  00000+0 -40987-3 0   826
2 63675  42.9999 196.2420 0001406 248.7879  80.5009 15.70813210    12
STARLINK-11661 [DTC]    
1 63676C 25085N   26082.37618056  .00087511  00000+0  68162-3 0   822
2 63676  42.9998 195.6362 0002026 236.8709 261.8296 15.70726794    11
STARLINK-33816          
1 63677C 25085P   26082.36506944 -.00017411  00000+0 -63022-3 0   828
2 63677  43.0017 313.8336 0001327 262.8959 315.3054 15.27608057    10
STARLINK-33861          
1 63678C 25085Q   26082.38104167 -.00011764  00000+0 -42594-3 0   828
2 63678  43.0018 313.8105 0001600 271.9803   5.8670 15.27595205    14
STARLINK-33850          
1 63679C 25085R   26082.41437500  .00003558  00000+0  12876-3 0   823
2 63679  43.0027 313.3696 0001690 262.6123 304.8602 15.27602772    11
STARLINK-33887          
1 63680C 25085S   26082.41645833  .00007168  00000+0  25948-3 0   820
2 63680  43.0017 312.9440 0001234 262.5633 126.2117 15.27591797    14
STARLINK-33886          
1 63681C 25085T   26082.34215278 -.00017061  00000+0 -61755-3 0   820
2 63681  43.0014 313.3125 0001738 270.3693  90.5117 15.27607387    15
STARLINK-33840          
1 63682C 25085U   26082.42270833  .00008054  00000+0  29154-3 0   825
2 63682  43.0016 313.5212 0001698 258.5608 269.9179 15.27595042    10
STARLINK-33851          
1 63683C 25085V   26082.30743056 -.00040375  00000+0 -14630-2 0   821
2 63683  43.0032 313.7293 0001301 266.6633 171.1522 15.27584249    12
STARLINK-33853          
1 63684C 25085W   26082.32826389 -.00017834  00000+0 -64541-3 0   826
2 63684  43.0030 313.5597 0001099 262.9388 310.6881 15.27614916    19
STARLINK-33847          
1 63685C 25085X   26082.31090278 -.00016251  00000+0 -58824-3 0   825
2 63685  43.0017 314.0173 0001501 258.2298  71.2688 15.27606727    13
STARLINK-33880          
1 63686C 25085Y   26082.30951389 -.00015470  00000+0 -56014-3 0   825
2 63686  43.0018 314.1944 0001555 254.7246 356.3710 15.27596419    14
STARLINK-33894          
1 63697C 25087A   26082.39006944 -.00074973  00000+0 -25257-2 0   823
2 63697  53.1570 155.7217 0001225  78.4000 152.0831 15.30243593    17
STARLINK-33922          
1 63698C 25087B   26082.36993056 -.00031922  00000+0 -10761-2 0   821
2 63698  53.1575 155.7682 0001051 106.3502  36.4517 15.30201219    19
STARLINK-33919          
1 63699C 25087C   26082.30534722  .00000258  00000+0  86698-5 0   828
2 63699  53.1591 156.6755 0001361  88.7851 109.6828 15.30234060    11
STARLINK-33908          
1 63700C 25087D   26082.34284722 -.00080348  00000+0 -27057-2 0   828
2 63700  53.1563 156.0762 0001085  91.0350 169.3504 15.30259779    17
STARLINK-33950          
1 63701C 25087E   26082.29631944  .00004035  00000+0  13599-3 0   829
2 63701  53.1581 156.4996 0001182  97.0635 162.2281 15.30191764    14
STARLINK-33939          
1 63702C 25087F   26082.35256944 -.00023198  00000+0 -78187-3 0   827
2 63702  53.1578 156.2037 0001306  92.7121 134.0560 15.30202499    10
